{"type": "FeatureCollection", "features": [ {"type": "Feature", "properties": {"norad_id": 29878, "name": "FENGYUN 1C DEB", "group": "fengyun-1c-debris", "lat": -51.377283614105714, "lon": -32.359270993697415, "alt_km": 533.0134570760529, "timestamp": "2025-12-09T14:52:26.433717+00:00", "meta": {"OBJECT_NAME": "FENGYUN 1C DEB", "OBJECT_ID": "1999-025FY", "EPOCH": "2025-12-08T23:31:22.151136", "MEAN_MOTION": 15.0847323, "ECCENTRICITY": 0.002925, "INCLINATION": 96.9483, "RA_OF_ASC_NODE": 155.8419, "ARG_OF_PERICENTER": 188.8195, "MEAN_ANOMALY": 171.2525, "EPHEMERIS_TYPE": 0, "CLASSIFICATION_TYPE": "U", "NORAD_CAT_ID": 29878, "ELEMENT_SET_NO": 999, "REV_AT_EPOCH": 98591, "BSTAR": 0.0091545, "MEAN_MOTION_DOT": 0.00146763, "MEAN_MOTION_DDOT": 0}, "tle": {"line1": "1 29878U 99025FY  25342.98011749  .00146763  00000+0  91545-2 0  9996", "line2": "2 29878  96.9483 155.8419 0029250 188.8195 171.2525 15.08473230985914"}}, "geometry": {"type": "Point", "coordinates": [-32.359270993697415, -51.377283614105714]}}, {"type": "Feature", "properties": {"norad_id": 29880, "name": "FENGYUN 1C DEB", "group": "fengyun-1c-debris", "lat": -41.903281687385814, "lon": -90.0599039981682, "alt_km": 1070.5680314951342, "timestamp": "2025-12-09T14:52:26.433728+00:00", "meta": {"OBJECT_NAME": "FENGYUN 1C DEB", "OBJECT_ID": "1999-025GA", "EPOCH": "2025-12-08T06:57:11.668032", "MEAN_MOTION": 13.93886986, "ECCENTRICITY": 0.02314461, "INCLINATION": 98.1942, "RA_OF_ASC_NODE": 261.3301, "ARG_OF_PERICENTER": 113.9498, "MEAN_ANOMALY": 14.5654, "EPHEMERIS_TYPE": 0, "CLASSIFICATION_TYPE": "U", "NORAD_CAT_ID": 29880, "ELEMENT_SET_NO": 999, "REV_AT_EPOCH": 95500, "BSTAR": 0.0014412467, "MEAN_MOTION_DOT": 2.34e-05, "MEAN_MOTION_DDOT": 0}, "tle": {"line1": "1 29880U 99025GA  25342.28971838  .00002340  00000+0  14412-2 0  9996", "line2": "2 29880  98.1942 261.3301 0231446 113.9498  14.5654 13.93886986955008"}}, "geometry": {"type": "Point", "coordinates": [-90.0599039981682, -41.903281687385814]}}, {"type": "Feature", "properties": {"norad_id": 29881, "name": "FENGYUN 1C DEB", "group": "fengyun-1c-debris", "lat": 74.3494544295175, "lon": -77.08861778740327, "alt_km": 813.7015308803147, "timestamp": "2025-12-09T14:52:26.433738+00:00", "meta": {"OBJECT_NAME": "FENGYUN 1C DEB", "OBJECT_ID": "1999-025GB", "EPOCH": "2025-12-08T21:08:52.109952", "MEAN_MOTION": 13.59589621, "ECCENTRICITY": 0.0292048, "INCLINATION": 98.7219, "RA_OF_ASC_NODE": 315.4775, "ARG_OF_PERICENTER": 81.7749, "MEAN_ANOMALY": 342.2365, "EPHEMERIS_TYPE": 0, "CLASSIFICATION_TYPE": "U", "NORAD_CAT_ID": 29881, "ELEMENT_SET_NO": 999, "REV_AT_EPOCH": 93182, "BSTAR": 0.0026374, "MEAN_MOTION_DOT": 2.554e-05, "MEAN_MOTION_DDOT": 0}, "tle": {"line1": "1 29881U 99025GB  25342.88115868  .00002554  00000+0  26374-2 0  9993", "line2": "2 29881  98.7219 315.4775 0292048  81.7749 342.2365 13.59589621931826"}}, "geometry": {"type": "Point", "coordinates": [-77.08861778740327, 74.3494544295175]}}, {"type": "Feature", "properties": {"norad_id": 29884, "name": "FENGYUN 1C DEB", "group": "fengyun-1c-debris", "lat": -34.11553606329322, "lon": -169.91124420108346, "alt_km": 752.0636856846513, "timestamp": "2025-12-09T14:52:26.433749+00:00", "meta": {"OBJECT_NAME": "FENGYUN 1C DEB", "OBJECT_ID": "1999-025GE", "EPOCH": "2025-12-09T02:18:52.145568", "MEAN_MOTION": 14.40272975, "ECCENTRICITY": 0.00444932, "INCLINATION": 99.6031, "RA_OF_ASC_NODE": 16.0883, "ARG_OF_PERICENTER": 147.3932, "MEAN_ANOMALY": 234.8399, "EPHEMERIS_TYPE": 0, "CLASSIFICATION_TYPE": "U", "NORAD_CAT_ID": 29884, "ELEMENT_SET_NO": 999, "REV_AT_EPOCH": 98497, "BSTAR": 0.00081418256, "MEAN_MOTION_DOT": 2.556e-05, "MEAN_MOTION_DDOT": 0}, "tle": {"line1": "1 29884U 99025GE  25343.09643687  .00002556  00000+0  81418-3 0  9998", "line2": "2 29884  99.6031  16.0883 0044493 147.3932 234.8399 14.40272975984976"}}, "geometry": {"type": "Point", "coordinates": [-169.91124420108346, -34.11553606329322]}}, {"type": "Feature", "properties": {"norad_id": 29885, "name": "FENGYUN 1C DEB", "group": "fengyun-1c-debris", "lat": 12.116277554961943, "lon": -82.95119010427527, "alt_km": 928.9180337732987, "timestamp": "2025-12-09T14:52:26.433759+00:00", "meta": {"OBJECT_NAME": "FENGYUN 1C DEB", "OBJECT_ID": "1999-025GF", "EPOCH": "2025-12-08T18:43:49.718784", "MEAN_MOTION": 14.13578495, "ECCENTRICITY": 0.01181292, "INCLINATION": 98.3549, "RA_OF_ASC_NODE": 278.0723, "ARG_OF_PERICENTER": 175.6691, "MEAN_ANOMALY": 248.3842, "EPHEMERIS_TYPE": 0, "CLASSIFICATION_TYPE": "U", "NORAD_CAT_ID": 29885, "ELEMENT_SET_NO": 999, "REV_AT_EPOCH": 97401, "BSTAR": 0.00024252097, "MEAN_MOTION_DOT": 4.49e-06, "MEAN_MOTION_DDOT": 0}, "tle": {"line1": "1 29885U 99025GF  25342.78043656  .00000449  00000+0  24252-3 0  9996", "line2": "2 29885  98.3549 278.0723 0118129 175.6691 248.3842 14.13578495974017"}}, "geometry": {"type": "Point", "coordinates": [-82.95119010427527, 12.116277554961943]}}, {"type": "Feature", "properties": {"norad_id": 29887, "name": "FENGYUN 1C DEB", "group": "fengyun-1c-debris", "lat": -78.89444532021487, "lon": 116.61826987095044, "alt_km": 786.0247514294142, "timestamp": "2025-12-09T14:52:26.433769+00:00", "meta": {"OBJECT_NAME": "FENGYUN 1C DEB", "OBJECT_ID": "1999-025GH", "EPOCH": "2025-12-09T05:27:29.241792", "MEAN_MOTION": 14.33684407, "ECCENTRICITY": 0.02872557, "INCLINATION": 98.7179, "RA_OF_ASC_NODE": 64.8068, "ARG_OF_PERICENTER": 9.515, "MEAN_ANOMALY": 46.9364, "EPHEMERIS_TYPE": 0, "CLASSIFICATION_TYPE": "U", "NORAD_CAT_ID": 29887, "ELEMENT_SET_NO": 999, "REV_AT_EPOCH": 97924, "BSTAR": 0.00075825025, "MEAN_MOTION_DOT": 3.288e-05, "MEAN_MOTION_DDOT": 0}, "tle": {"line1": "1 29887U 99025GH  25343.22742178  .00003288  00000+0  75825-3 0  9999", "line2": "2 29887  98.7179  64.8068 0287255   9.5150  46.9364 14.33684407979241"}}, "geometry": {"type": "Point", "coordinates": [116.61826987095044, -78.89444532021487]}}, {"type": "Feature", "properties": {"norad_id": 29888, "name": "FENGYUN 1C DEB", "group": "fengyun-1c-debris", "lat": 22.616865185910175, "lon": 0.0726462440600177, "alt_km": 928.782721252288, "timestamp": "2025-12-09T14:52:26.433780+00:00", "meta": {"OBJECT_NAME": "FENGYUN 1C DEB", "OBJECT_ID": "1999-025GJ", "EPOCH": "2025-12-09T02:19:09.623424", "MEAN_MOTION": 14.19843676, "ECCENTRICITY": 0.02751119, "INCLINATION": 99.192, "RA_OF_ASC_NODE": 175.6609, "ARG_OF_PERICENTER": 35.7007, "MEAN_ANOMALY": 326.2224, "EPHEMERIS_TYPE": 0, "CLASSIFICATION_TYPE": "U", "NORAD_CAT_ID": 29888, "ELEMENT_SET_NO": 999, "REV_AT_EPOCH": 97452, "BSTAR": 0.00045077696, "MEAN_MOTION_DOT": 1.344e-05, "MEAN_MOTION_DDOT": 0}, "tle": {"line1": "1 29888U 99025GJ  25343.09663916  .00001344  00000+0  45078-3 0  9995", "line2": "2 29888  99.1920 175.6609 0275111  35.7007 326.2224 14.19843676974527"}}, "geometry": {"type": "Point", "coordinates": [0.0726462440600177, 22.616865185910175]}}, {"type": "Feature", "properties": {"norad_id": 29889, "name": "FENGYUN 1C DEB", "group": "fengyun-1c-debris", "lat": -52.786383070833516, "lon": 113.53333037610143, "alt_km": 874.9005978425594, "timestamp": "2025-12-09T14:52:26.433790+00:00", "meta": {"OBJECT_NAME": "FENGYUN 1C DEB", "OBJECT_ID": "1999-025GK", "EPOCH": "2025-12-09T06:56:18.525984", "MEAN_MOTION": 14.13505855, "ECCENTRICITY": 0.01545474, "INCLINATION": 99.4767, "RA_OF_ASC_NODE": 100.4773, "ARG_OF_PERICENTER": 48.6436, "MEAN_ANOMALY": 17.7085, "EPHEMERIS_TYPE": 0, "CLASSIFICATION_TYPE": "U", "NORAD_CAT_ID": 29889, "ELEMENT_SET_NO": 999, "REV_AT_EPOCH": 97270, "BSTAR": 0.00046658712, "MEAN_MOTION_DOT": 9.36e-06, "MEAN_MOTION_DDOT": 0}, "tle": {"line1": "1 29889U 99025GK  25343.28910331  .00000936  00000+0  46659-3 0  9995", "line2": "2 29889  99.4767 100.4773 0154547  48.6436  17.7085 14.13505855972709"}}, "geometry": {"type": "Point", "coordinates": [113.53333037610143, -52.786383070833516]}}, {"type": "Feature", "properties": {"norad_id": 29890, "name": "FENGYUN 1C DEB", "group": "fengyun-1c-debris", "lat": 62.91819759259816, "lon": 85.86225487172786, "alt_km": 798.7406968393598, "timestamp": "2025-12-09T14:52:26.433801+00:00", "meta": {"OBJECT_NAME": "FENGYUN 1C DEB", "OBJECT_ID": "1999-025GL", "EPOCH": "2025-12-09T06:08:06.251424", "MEAN_MOTION": 14.23017335, "ECCENTRICITY": 0.00149106, "INCLINATION": 99.4674, "RA_OF_ASC_NODE": 104.5177, "ARG_OF_PERICENTER": 83.1682, "MEAN_ANOMALY": 277.119, "EPHEMERIS_TYPE": 0, "CLASSIFICATION_TYPE": "U", "NORAD_CAT_ID": 29890, "ELEMENT_SET_NO": 999, "REV_AT_EPOCH": 97401, "BSTAR": 0.0014131486, "MEAN_MOTION_DOT": 3.138e-05, "MEAN_MOTION_DDOT": 0}, "tle": {"line1": "1 29890U 99025GL  25343.25562791  .00003138  00000+0  14131-2 0  9993", "line2": "2 29890  99.4674 104.5177 0014910  83.1682 277.1190 14.23017335974014"}}, "geometry": {"type": "Point", "coordinates": [85.86225487172786, 62.91819759259816]}}, {"type": "Feature", "properties": {"norad_id": 29891, "name": "FENGYUN 1C DEB", "group": "fengyun-1c-debris", "lat": -66.43708101045128, "lon": 145.27006308053848, "alt_km": 859.3380464059364, "timestamp": "2025-12-09T14:52:26.433812+00:00", "meta": {"OBJECT_NAME": "FENGYUN 1C DEB", "OBJECT_ID": "1999-025GM", "EPOCH": "2025-12-09T00:03:27.523296", "MEAN_MOTION": 13.99990363, "ECCENTRICITY": 0.0061401, "INCLINATION": 98.7261, "RA_OF_ASC_NODE": 345.3007, "ARG_OF_PERICENTER": 270.8215, "MEAN_ANOMALY": 107.715, "EPHEMERIS_TYPE": 0, "CLASSIFICATION_TYPE": "U", "NORAD_CAT_ID": 29891, "ELEMENT_SET_NO": 999, "REV_AT_EPOCH": 96436, "BSTAR": 0.00054478, "MEAN_MOTION_DOT": 7.72e-06, "MEAN_MOTION_DDOT": 0}, "tle": {"line1": "1 29891U 99025GM  25343.00240189  .00000772  00000+0  54478-3 0  9991", "line2": "2 29891  98.7261 345.3007 0061401 270.8215 107.7150 13.99990363964364"}}, "geometry": {"type": "Point", "coordinates": [145.27006308053848, -66.43708101045128]}}]}